{
    "links": {
        "self": "http://www.neowsapp.com/rest/v1/neo/54053917?api_key=iIulBulltgU6a56xZRHN4H3l9WmuAYTsLGpBGhQ2"
    },
    "id": "54053917",
    "neo_reference_id": "54053917",
    "name": "(2020 RG3)",
    "designation": "2020 RG3",
    "nasa_jpl_url": "http://ssd.jpl.nasa.gov/sbdb.cgi?sstr=54053917",
    "absolute_magnitude_h": 25.762,
    "estimated_diameter": {
        "kilometers": {
            "estimated_diameter_min": 0.0187134981,
            "estimated_diameter_max": 0.0418446538
        },
        "meters": {
            "estimated_diameter_min": 18.7134980647,
            "estimated_diameter_max": 41.8446537694
        },
        "miles": {
            "estimated_diameter_min": 0.011628025,
            "estimated_diameter_max": 0.0260010544
        },
        "feet": {
            "estimated_diameter_min": 61.3959929905,
            "estimated_diameter_max": 137.2856138729
        }
    },
    "is_potentially_hazardous_asteroid": false,
    "close_approach_data": [
        {
            "close_approach_date": "2020-08-28",
            "close_approach_date_full": "2020-Aug-28 18:21",
            "epoch_date_close_approach": 1598638860000,
            "relative_velocity": {
                "kilometers_per_second": "7.4235607721",
                "kilometers_per_hour": "26724.818779583",
                "miles_per_hour": "16605.7630911248"
            },
            "miss_distance": {
                "astronomical": "0.0807217973",
                "lunar": "31.4007791497",
                "kilometers": "12075808.938651751",
                "miles": "7503559.7297901238"
            },
            "orbiting_body": "Earth"
        }
    ],
    "orbital_data": {
        "orbit_id": "2",
        "orbit_determination_date": "2020-09-16 08:00:04",
        "first_observation_date": "2020-09-10",
        "last_observation_date": "2020-09-15",
        "data_arc_in_days": 5,
        "observations_used": 23,
        "orbit_uncertainty": "8",
        "minimum_orbit_intersection": ".0787831",
        "jupiter_tisserand_invariant": "3.463",
        "epoch_osculation": "2459103.5",
        "eccentricity": ".5131290254696682",
        "semi_major_axis": "2.212250194657565",
        "inclination": "7.029164872722702",
        "ascending_node_longitude": "169.1683092143618",
        "orbital_period": "1201.84867734086",
        "perihelion_distance": "1.077080408177845",
        "perihelion_argument": "155.7001347287633",
        "aphelion_distance": "3.347419981137286",
        "perihelion_time": "2459081.203823921060",
        "mean_anomaly": "6.678564065301162",
        "mean_motion": ".2995385415712358",
        "equinox": "J2000",
        "orbit_class": {
            "orbit_class_type": "AMO",
            "orbit_class_description": "Near-Earth asteroid orbits similar to that of 1221 Amor",
            "orbit_class_range": "1.017 AU < q (perihelion) < 1.3 AU"
        }
    },
    "is_sentry_object": false
}